[{"OBJECT_NAME":"ONEWEB-0635","OBJECT_ID":"2023-043AG","EPOCH":"2026-03-09T23:10:09.413472","MEAN_MOTION":13.15547627,"ECCENTRICITY":0.0001302,"INCLINATION":87.8944,"RA_OF_ASC_NODE":278.9965,"ARG_OF_PERICENTER":93.5814,"MEAN_ANOMALY":266.5466,"EPHEMERIS_TYPE":0,"CLASSIFICATION_TYPE":"U","NORAD_CAT_ID":56076,"ELEMENT_SET_NO":999,"REV_AT_EPOCH":14338,"BSTAR":0.00013960334,"MEAN_MOTION_DOT":6.5e-7,"MEAN_MOTION_DDOT":0},{"OBJECT_NAME":"SCOUT A DEB","OBJECT_ID":"1967-092D","EPOCH":"2026-03-09T12:46:23.498688","MEAN_MOTION":13.2596294,"ECCENTRICITY":0.01876111,"INCLINATION":89.0548,"RA_OF_ASC_NODE":97.3023,"ARG_OF_PERICENTER":141.5107,"MEAN_ANOMALY":12.5046,"EPHEMERIS_TYPE":0,"CLASSIFICATION_TYPE":"U","NORAD_CAT_ID":3122,"ELEMENT_SET_NO":999,"REV_AT_EPOCH":56981,"BSTAR":0.0004073723,"MEAN_MOTION_DOT":2.09e-6,"MEAN_MOTION_DDOT":0}]
